[{"norad_id":"57893","company":"STARLINK","tle_line2":"2 57893  43.0037 173.0972 0001181 275.9948  84.0759 15.02532719121018","launch_date":"2023-09-20","type":"LEO","tle_line1":"1 57893U 23146C   25326.96882424 -.00000291  00000+0 -64552-5 0  9999","satellite_name":"STARLINK-30473"},{"norad_id":"57894","company":"STARLINK","tle_line2":"2 57894  43.0029 178.6963 0001244 270.0325  90.0375 15.02538202120862","launch_date":"2023-09-20","type":"LEO","tle_line1":"1 57894U 23146D   25325.98830720  .00000499  00000+0  51976-4 0  9996","satellite_name":"STARLINK-30443"},{"norad_id":"57895","company":"STARLINK","tle_line2":"2 57895  43.0024 178.7217 0001056 267.6394  92.4328 15.02536949120860","launch_date":"2023-09-20","type":"LEO","tle_line1":"1 57895U 23146E   25325.99164202  .00000588  00000+0  58624-4 0  9999","satellite_name":"STARLINK-30467"},{"norad_id":"57896","company":"STARLINK","tle_line2":"2 57896  43.0016 183.7289 0001034 259.9681 100.1045 15.02538920120725","launch_date":"2023-09-20","type":"LEO","tle_line1":"1 57896U 23146F   25325.05429342  .00001977  00000+0  16135-3 0  9999","satellite_name":"STARLINK-30469"},{"norad_id":"57897","company":"STARLINK","tle_line2":"2 57897  43.0036 184.0497 0000996 274.1098  85.9631 15.02535983120716","launch_date":"2023-09-20","type":"LEO","tle_line1":"1 57897U 23146G   25324.98226536  .00000800  00000+0  74293-4 0  9995","satellite_name":"STARLINK-30474"},{"norad_id":"57898","company":"STARLINK","tle_line2":"2 57898  43.0031 178.6223 0001331 272.2871  87.7819 15.02540968120863","launch_date":"2023-09-20","type":"LEO","tle_line1":"1 57898U 23146H   25325.97831934  .00000712  00000+0  67760-4 0  9993","satellite_name":"STARLINK-30479"},{"norad_id":"57899","company":"STARLINK","tle_line2":"2 57899  43.0031 184.0154 0001030 260.4081  99.6645 15.02529266120717","launch_date":"2023-09-20","type":"LEO","tle_line1":"1 57899U 23146J   25324.97782601  .00001241  00000+0  10693-3 0  9999","satellite_name":"STARLINK-30481"},{"norad_id":"57900","company":"STARLINK","tle_line2":"2 57900  42.9989 175.2366 0000527 343.9215  16.1610 15.02581246119892","launch_date":"2023-09-20","type":"LEO","tle_line1":"1 57900U 23146K   25326.55774720 -.00008994  00000+0 -65078-3 0  9992","satellite_name":"STARLINK-30457"},{"norad_id":"57901","company":"STARLINK","tle_line2":"2 57901  43.0005 177.9828 0000805 263.4509  96.6241 15.02536462119812","launch_date":"2023-09-20","type":"LEO","tle_line1":"1 57901U 23146L   25326.00817237  .00000082  00000+0  21132-4 0  9996","satellite_name":"STARLINK-30472"},{"norad_id":"57902","company":"STARLINK","tle_line2":"2 57902  43.0034 178.5465 0001040 260.7666  99.3059 15.02540541120828","launch_date":"2023-09-20","type":"LEO","tle_line1":"1 57902U 23146M   25325.96833522  .00001069  00000+0  94158-4 0  9990","satellite_name":"STARLINK-30462"},{"norad_id":"57903","company":"STARLINK","tle_line2":"2 57903  43.0028 177.9563 0000860 257.3199 102.7547 15.02538231119817","launch_date":"2023-09-20","type":"LEO","tle_line1":"1 57903U 23146N   25326.00483936 -.00000115  00000+0  65744-5 0  9999","satellite_name":"STARLINK-30449"},{"norad_id":"57904","company":"STARLINK","tle_line2":"2 57904  43.0042 173.0999 0001791 254.3138 105.7507 15.02512328119951","launch_date":"2023-09-20","type":"LEO","tle_line1":"1 57904U 23146P   25326.96218563 -.00003032  00000+0 -20956-3 0  9993","satellite_name":"STARLINK-30466"},{"norad_id":"57905","company":"STARLINK","tle_line2":"2 57905  43.0022 178.2910 0001479 277.7368  82.3306 15.02535319119803","launch_date":"2023-09-20","type":"LEO","tle_line1":"1 57905U 23146Q   25325.93503290 -.00000335  00000+0 -97578-5 0  9993","satellite_name":"STARLINK-30451"},{"norad_id":"57906","company":"STARLINK","tle_line2":"2 57906  42.9971 173.4343 0001552  81.7676 278.3342 15.02514853119941","launch_date":"2023-09-20","type":"LEO","tle_line1":"1 57906U 23146R   25326.89237262  .00001981  00000+0  16174-3 0  9990","satellite_name":"STARLINK-30428"},{"norad_id":"57907","company":"STARLINK","tle_line2":"2 57907  43.0027 178.1109 0001098 266.8616  93.2101 15.02538611119825","launch_date":"2023-09-20","type":"LEO","tle_line1":"1 57907U 23146S   25326.02482119  .00000171  00000+0  27761-4 0  9994","satellite_name":"STARLINK-30482"},{"norad_id":"57908","company":"STARLINK","tle_line2":"2 57908  43.0043 174.8065 0001643 249.4506 110.6161 15.02542700119902","launch_date":"2023-09-20","type":"LEO","tle_line1":"1 57908U 23146T   25326.61645272  .00001391  00000+0  11801-3 0  9993","satellite_name":"STARLINK-30464"}]