[{"OBJECT_NAME":"STARLINK-30473","OBJECT_ID":"2023-146C","EPOCH":"2025-11-22T23:15:06.414336","MEAN_MOTION":15.02532719,"ECCENTRICITY":0.0001181,"INCLINATION":43.0037,"RA_OF_ASC_NODE":173.0972,"ARG_OF_PERICENTER":275.9948,"MEAN_ANOMALY":84.0759,"EPHEMERIS_TYPE":0,"CLASSIFICATION_TYPE":"U","NORAD_CAT_ID":57893,"ELEMENT_SET_NO":999,"REV_AT_EPOCH":12101,"BSTAR":-6.4552e-6,"MEAN_MOTION_DOT":-2.91e-6,"MEAN_MOTION_DDOT":0},{"OBJECT_NAME":"STARLINK-30443","OBJECT_ID":"2023-146D","EPOCH":"2025-11-21T23:43:09.742080","MEAN_MOTION":15.02538202,"ECCENTRICITY":0.00012444,"INCLINATION":43.0029,"RA_OF_ASC_NODE":178.6963,"ARG_OF_PERICENTER":270.0325,"MEAN_ANOMALY":90.0375,"EPHEMERIS_TYPE":0,"CLASSIFICATION_TYPE":"U","NORAD_CAT_ID":57894,"ELEMENT_SET_NO":999,"REV_AT_EPOCH":12086,"BSTAR":5.1975779e-5,"MEAN_MOTION_DOT":4.99e-6,"MEAN_MOTION_DDOT":0},{"OBJECT_NAME":"STARLINK-30467","OBJECT_ID":"2023-146E","EPOCH":"2025-11-21T23:47:57.870528","MEAN_MOTION":15.02536949,"ECCENTRICITY":0.00010561,"INCLINATION":43.0024,"RA_OF_ASC_NODE":178.7217,"ARG_OF_PERICENTER":267.6394,"MEAN_ANOMALY":92.4328,"EPHEMERIS_TYPE":0,"CLASSIFICATION_TYPE":"U","NORAD_CAT_ID":57895,"ELEMENT_SET_NO":999,"REV_AT_EPOCH":12086,"BSTAR":5.8623849e-5,"MEAN_MOTION_DOT":5.88e-6,"MEAN_MOTION_DDOT":0},{"OBJECT_NAME":"STARLINK-30469","OBJECT_ID":"2023-146F","EPOCH":"2025-11-21T01:18:10.951488","MEAN_MOTION":15.0253892,"ECCENTRICITY":0.00010348,"INCLINATION":43.0016,"RA_OF_ASC_NODE":183.7289,"ARG_OF_PERICENTER":259.9681,"MEAN_ANOMALY":100.1045,"EPHEMERIS_TYPE":0,"CLASSIFICATION_TYPE":"U","NORAD_CAT_ID":57896,"ELEMENT_SET_NO":999,"REV_AT_EPOCH":12072,"BSTAR":0.00016134869,"MEAN_MOTION_DOT":1.977e-5,"MEAN_MOTION_DDOT":0},{"OBJECT_NAME":"STARLINK-30474","OBJECT_ID":"2023-146G","EPOCH":"2025-11-20T23:34:27.727104","MEAN_MOTION":15.02535983,"ECCENTRICITY":9.96e-5,"INCLINATION":43.0036,"RA_OF_ASC_NODE":184.0497,"ARG_OF_PERICENTER":274.1098,"MEAN_ANOMALY":85.9631,"EPHEMERIS_TYPE":0,"CLASSIFICATION_TYPE":"U","NORAD_CAT_ID":57897,"ELEMENT_SET_NO":999,"REV_AT_EPOCH":12071,"BSTAR":7.4292982e-5,"MEAN_MOTION_DOT":8.0e-6,"MEAN_MOTION_DDOT":0},{"OBJECT_NAME":"STARLINK-30479","OBJECT_ID":"2023-146H","EPOCH":"2025-11-21T23:28:46.790976","MEAN_MOTION":15.02540968,"ECCENTRICITY":0.00013316,"INCLINATION":43.0031,"RA_OF_ASC_NODE":178.6223,"ARG_OF_PERICENTER":272.2871,"MEAN_ANOMALY":87.7819,"EPHEMERIS_TYPE":0,"CLASSIFICATION_TYPE":"U","NORAD_CAT_ID":57898,"ELEMENT_SET_NO":999,"REV_AT_EPOCH":12086,"BSTAR":6.7760369e-5,"MEAN_MOTION_DOT":7.12e-6,"MEAN_MOTION_DDOT":0},{"OBJECT_NAME":"STARLINK-30481","OBJECT_ID":"2023-146J","EPOCH":"2025-11-20T23:28:04.167264","MEAN_MOTION":15.02529266,"ECCENTRICITY":0.00010307,"INCLINATION":43.0031,"RA_OF_ASC_NODE":184.0154,"ARG_OF_PERICENTER":260.4081,"MEAN_ANOMALY":99.6645,"EPHEMERIS_TYPE":0,"CLASSIFICATION_TYPE":"U","NORAD_CAT_ID":57899,"ELEMENT_SET_NO":999,"REV_AT_EPOCH":12071,"BSTAR":0.00010693318,"MEAN_MOTION_DOT":1.241e-5,"MEAN_MOTION_DDOT":0},{"OBJECT_NAME":"STARLINK-30457","OBJECT_ID":"2023-146K","EPOCH":"2025-11-22T13:23:09.358080","MEAN_MOTION":15.02581246,"ECCENTRICITY":5.27e-5,"INCLINATION":42.9989,"RA_OF_ASC_NODE":175.2366,"ARG_OF_PERICENTER":343.9215,"MEAN_ANOMALY":16.161,"EPHEMERIS_TYPE":0,"CLASSIFICATION_TYPE":"U","NORAD_CAT_ID":57900,"ELEMENT_SET_NO":999,"REV_AT_EPOCH":11989,"BSTAR":-0.00065078,"MEAN_MOTION_DOT":-8.994e-5,"MEAN_MOTION_DDOT":0},{"OBJECT_NAME":"STARLINK-30472","OBJECT_ID":"2023-146L","EPOCH":"2025-11-22T00:11:46.092768","MEAN_MOTION":15.02536462,"ECCENTRICITY":8.056e-5,"INCLINATION":43.0005,"RA_OF_ASC_NODE":177.9828,"ARG_OF_PERICENTER":263.4509,"MEAN_ANOMALY":96.6241,"EPHEMERIS_TYPE":0,"CLASSIFICATION_TYPE":"U","NORAD_CAT_ID":57901,"ELEMENT_SET_NO":999,"REV_AT_EPOCH":11981,"BSTAR":2.1132462e-5,"MEAN_MOTION_DOT":8.2e-7,"MEAN_MOTION_DDOT":0},{"OBJECT_NAME":"STARLINK-30462","OBJECT_ID":"2023-146M","EPOCH":"2025-11-21T23:14:24.163008","MEAN_MOTION":15.02540541,"ECCENTRICITY":0.00010409,"INCLINATION":43.0034,"RA_OF_ASC_NODE":178.5465,"ARG_OF_PERICENTER":260.7666,"MEAN_ANOMALY":99.3059,"EPHEMERIS_TYPE":0,"CLASSIFICATION_TYPE":"U","NORAD_CAT_ID":57902,"ELEMENT_SET_NO":999,"REV_AT_EPOCH":12082,"BSTAR":9.41582e-5,"MEAN_MOTION_DOT":1.069e-5,"MEAN_MOTION_DDOT":0},{"OBJECT_NAME":"STARLINK-30449","OBJECT_ID":"2023-146N","EPOCH":"2025-11-22T00:06:58.120704","MEAN_MOTION":15.02538231,"ECCENTRICITY":8.604e-5,"INCLINATION":43.0028,"RA_OF_ASC_NODE":177.9563,"ARG_OF_PERICENTER":257.3199,"MEAN_ANOMALY":102.7547,"EPHEMERIS_TYPE":0,"CLASSIFICATION_TYPE":"U","NORAD_CAT_ID":57903,"ELEMENT_SET_NO":999,"REV_AT_EPOCH":11981,"BSTAR":6.574412e-6,"MEAN_MOTION_DOT":-1.15e-6,"MEAN_MOTION_DDOT":0},{"OBJECT_NAME":"STARLINK-30466","OBJECT_ID":"2023-146P","EPOCH":"2025-11-22T23:05:32.838432","MEAN_MOTION":15.02512328,"ECCENTRICITY":0.0001791,"INCLINATION":43.0042,"RA_OF_ASC_NODE":173.0999,"ARG_OF_PERICENTER":254.3138,"MEAN_ANOMALY":105.7507,"EPHEMERIS_TYPE":0,"CLASSIFICATION_TYPE":"U","NORAD_CAT_ID":57904,"ELEMENT_SET_NO":999,"REV_AT_EPOCH":11995,"BSTAR":-0.00020956,"MEAN_MOTION_DOT":-3.032e-5,"MEAN_MOTION_DDOT":0},{"OBJECT_NAME":"STARLINK-30451","OBJECT_ID":"2023-146Q","EPOCH":"2025-11-21T22:26:26.842560","MEAN_MOTION":15.02535319,"ECCENTRICITY":0.00014797,"INCLINATION":43.0022,"RA_OF_ASC_NODE":178.291,"ARG_OF_PERICENTER":277.7368,"MEAN_ANOMALY":82.3306,"EPHEMERIS_TYPE":0,"CLASSIFICATION_TYPE":"U","NORAD_CAT_ID":57905,"ELEMENT_SET_NO":999,"REV_AT_EPOCH":11980,"BSTAR":-9.757821e-6,"MEAN_MOTION_DOT":-3.35e-6,"MEAN_MOTION_DDOT":0},{"OBJECT_NAME":"STARLINK-30428","OBJECT_ID":"2023-146R","EPOCH":"2025-11-22T21:25:00.994368","MEAN_MOTION":15.02514853,"ECCENTRICITY":0.0001552,"INCLINATION":42.9971,"RA_OF_ASC_NODE":173.4343,"ARG_OF_PERICENTER":81.7676,"MEAN_ANOMALY":278.3342,"EPHEMERIS_TYPE":0,"CLASSIFICATION_TYPE":"U","NORAD_CAT_ID":57906,"ELEMENT_SET_NO":999,"REV_AT_EPOCH":11994,"BSTAR":0.00016174,"MEAN_MOTION_DOT":1.981e-5,"MEAN_MOTION_DDOT":0},{"OBJECT_NAME":"STARLINK-30482","OBJECT_ID":"2023-146S","EPOCH":"2025-11-22T00:35:44.550816","MEAN_MOTION":15.02538611,"ECCENTRICITY":0.00010983,"INCLINATION":43.0027,"RA_OF_ASC_NODE":178.1109,"ARG_OF_PERICENTER":266.8616,"MEAN_ANOMALY":93.2101,"EPHEMERIS_TYPE":0,"CLASSIFICATION_TYPE":"U","NORAD_CAT_ID":57907,"ELEMENT_SET_NO":999,"REV_AT_EPOCH":11982,"BSTAR":2.7760812e-5,"MEAN_MOTION_DOT":1.71e-6,"MEAN_MOTION_DDOT":0},{"OBJECT_NAME":"STARLINK-30464","OBJECT_ID":"2023-146T","EPOCH":"2025-11-22T14:47:41.515008","MEAN_MOTION":15.025427,"ECCENTRICITY":0.0001643,"INCLINATION":43.0043,"RA_OF_ASC_NODE":174.8065,"ARG_OF_PERICENTER":249.4506,"MEAN_ANOMALY":110.6161,"EPHEMERIS_TYPE":0,"CLASSIFICATION_TYPE":"U","NORAD_CAT_ID":57908,"ELEMENT_SET_NO":999,"REV_AT_EPOCH":11990,"BSTAR":0.00011801,"MEAN_MOTION_DOT":1.391e-5,"MEAN_MOTION_DDOT":0}]
